OBJECT_NAME,OBJECT_ID,EPOCH,MEAN_MOTION,ECCENTRICITY,INCLINATION,RA_OF_ASC_NODE,ARG_OF_PERICENTER,MEAN_ANOMALY,EPHEMERIS_TYPE,CLASSIFICATION_TYPE,NORAD_CAT_ID,ELEMENT_SET_NO,REV_AT_EPOCH,BSTAR,MEAN_MOTION_DOT,MEAN_MOTION_DDOT
QIANFAN-163,2026-121A,2026-06-20T19:57:23.546592,13.59758614,.00204763,89.0159,300.1473,178.2353,181.8879,0,U,69325,999,265,.30105417E-4,.35E-6,0
QIANFAN-164,2026-121B,2026-06-29T09:06:34.276032,13.57846129,.0021118,89.0179,299.2902,153.7449,206.4782,0,U,69326,999,381,.16343E-3,.13E-5,0
SZ-22 MODULE,2025-272C,2026-06-29T12:40:17.220576,15.60684365,.0007469,41.4792,247.0613,188.0300,172.0421,0,U,69328,999,525,.21629E-3,.1819E-3,0
STARLINK-37733,2026-122A,2026-06-29T12:00:02.998944,15.36867839,.0001027,97.2844,210.2246,76.6634,308.3469,0,U,69329,999,532,.25034E-2,.91112E-3,0
STARLINK-37772,2026-122B,2026-06-29T12:00:02.998944,15.33378768,.0001392,97.2837,210.2409,76.8197,345.6888,0,U,69330,999,527,.29821E-2,.97244E-3,0
STARLINK-37768,2026-122C,2026-06-29T12:00:02.998944,15.49133248,.0001226,97.2843,210.1692,99.6982,156.1137,0,U,69331,999,527,.23102E-2,.127358E-2,0
STARLINK-37833,2026-122D,2026-06-29T12:00:02.998944,15.43923494,.0001332,97.2846,210.2443,93.0473,323.4005,0,U,69332,999,527,-.58645E-1,-.2373162E-1,0
STARLINK-37818,2026-122E,2026-06-29T10:22:43.355136,15.47444729,.0000811,97.2824,210.1505,96.7297,263.4045,0,U,69333,999,406,-.19729E-1,-.927859E-2,0
STARLINK-37868,2026-122F,2026-06-29T12:00:02.998944,15.36919935,.0001403,97.2842,210.2600,96.0878,13.1247,0,U,69334,999,532,.29494E-2,.107774E-2,0
STARLINK-37877,2026-122G,2026-06-29T12:30:13.059072,15.49218246,.0000689,97.2850,210.1842,33.7862,326.3433,0,U,69335,999,407,.83238E-3,.45488E-3,0
STARLINK-37791,2026-122H,2026-06-28T23:18:06.045984,15.49215075,.0001835,97.2842,209.7087,86.5751,273.5710,0,U,69336,999,399,.73795399E-3,.40288E-3,0
STARLINK-37765,2026-122J,2026-06-29T12:00:02.998944,15.33403302,.0000844,97.2837,210.2843,72.8134,94.5944,0,U,69337,999,537,.27746E-2,.9046E-3,0
STARLINK-37788,2026-122K,2026-06-29T12:32:59.887104,15.49211774,.0000237,97.2856,210.1813,175.4038,184.7215,0,U,69338,999,407,.6011E-3,.32763E-3,0
STARLINK-37743,2026-122L,2026-06-28T14:07:17.826528,15.49180470,.00004277,97.2829,209.3096,63.2983,296.8312,0,U,69339,999,393,.71474171E-3,.38963E-3,0
STARLINK-37780,2026-122M,2026-06-29T09:48:14.196096,15.49047799,.0001615,97.2844,210.1855,136.6845,223.4533,0,U,69340,999,406,.54791E-2,.308355E-2,0
STARLINK-37781,2026-122N,2026-06-29T12:34:40.639008,15.49211042,.0000111,97.2855,210.1793,103.2097,256.9167,0,U,69341,999,407,.74429E-3,.40629E-3,0
STARLINK-37782,2026-122P,2026-06-29T12:00:02.998944,15.39004710,.0001821,97.2838,210.3131,87.0126,146.0178,0,U,69342,999,532,-.86457E-1,-.2947999E-1,0
STARLINK-37776,2026-122Q,2026-06-29T12:00:02.998944,15.40720057,.0001688,97.2844,210.3162,103.4389,119.6409,0,U,69343,999,532,-.8257E-1,-.2976084E-1,0
STARLINK-37786,2026-122R,2026-06-29T13:13:27.986304,15.49225149,.0000735,97.2842,210.2980,101.4403,258.6931,0,U,69344,999,408,.63085E-3,.34413E-3,0
STARLINK-37785,2026-122S,2026-06-28T14:43:32.656224,15.48462265,.00021489,97.2842,209.4304,163.9671,196.1649,0,U,69345,999,394,-.77710529E-2,-.392328E-2,0
STARLINK-37773,2026-122T,2026-06-29T12:54:45.085248,15.49214978,.0001141,97.2855,210.3142,91.8611,268.2770,0,U,69346,999,408,.66051E-3,.3603E-3,0
STARLINK-37744,2026-122U,2026-06-29T12:28:49.176768,15.49168481,.0000659,97.2830,210.1868,136.2548,223.8756,0,U,69347,999,407,-.48414E-3,-.26314E-3,0
STARLINK-37775,2026-122V,2026-06-29T12:00:02.998944,15.49134729,.0001473,97.2839,210.2770,99.8068,50.5151,0,U,69348,999,532,.2033E-2,.111853E-2,0
STARLINK-37777,2026-122W,2026-06-29T12:52:50.424672,15.49206258,.0001122,97.2846,210.3166,78.1544,281.9833,0,U,69349,999,408,.63635E-3,.34692E-3,0
STARLINK-37779,2026-122X,2026-06-29T12:31:04.926720,15.49208346,.0000699,97.2848,210.3375,90.9441,269.1890,0,U,69350,999,408,.69423E-3,.37874E-3,0
STARLINK-37549,2026-122Y,2026-06-28T14:13:48.518688,15.49196062,.00017812,97.2845,209.3054,88.9936,271.1519,0,U,69351,999,393,.10639722E-2,.58221E-3,0
STARLINK-37778,2026-122Z,2026-06-29T05:32:28.983264,15.49190238,.0000892,97.2870,209.9706,37.6423,322.4891,0,U,69352,999,403,.95488E-3,.52189E-3,0
STARLINK-37651,2026-123A,2026-06-29T07:26:45.358080,15.81040845,.0001135,53.1553,181.0507,194.6672,165.4318,0,U,69353,999,395,.17248E-2,.35693E-2,0
STARLINK-37652,2026-123B,2026-06-29T05:57:21.950208,15.80868173,.0001136,53.1562,181.3746,118.7024,241.4112,0,U,69354,999,394,.13399E-2,.272197E-2,0
