QIANFAN-163             
1 69325U 26121A   26171.83152253  .00000035  00000+0  30105-4 0  9993
2 69325  89.0159 300.1473 0020476 178.2353 181.8879 13.59758614  2659
QIANFAN-164             
1 69326U 26121B   26180.37956338  .00000130  00000+0  16343-3 0  9992
2 69326  89.0179 299.2902 0021118 153.7449 206.4782 13.57846129  3818
SZ-22 MODULE            
1 69328U 25272C   26180.52797709  .00018190  00000+0  21629-3 0  9990
2 69328  41.4792 247.0613 0007469 188.0300 172.0421 15.60684365  5259
STARLINK-37733          
1 69329U 26122A   26180.50003471  .00091112  00000+0  25034-2 0  9998
2 69329  97.2844 210.2246 0001027  76.6634 308.3469 15.36867839  5323
STARLINK-37772          
1 69330U 26122B   26180.50003471  .00097244  00000+0  29821-2 0  9990
2 69330  97.2837 210.2409 0001392  76.8197 345.6888 15.33378768  5277
STARLINK-37768          
1 69331U 26122C   26180.50003471  .00127358  00000+0  23102-2 0  9997
2 69331  97.2843 210.1692 0001226  99.6982 156.1137 15.49133248  5270
STARLINK-37833          
1 69332U 26122D   26180.50003471 -.02373162  00000+0 -58645-1 0  9997
2 69332  97.2846 210.2443 0001332  93.0473 323.4005 15.43923494  5277
STARLINK-37818          
1 69333U 26122E   26180.43244624 -.00927859  00000+0 -19729-1 0  9993
2 69333  97.2824 210.1505 0000811  96.7297 263.4045 15.47444729  4063
STARLINK-37868          
1 69334U 26122F   26180.50003471  .00107774  00000+0  29494-2 0  9990
2 69334  97.2842 210.2600 0001403  96.0878  13.1247 15.36919935  5325
STARLINK-37877          
1 69335U 26122G   26180.52098448  .00045488  00000+0  83238-3 0  9991
2 69335  97.2850 210.1842 0000689  33.7862 326.3433 15.49218246  4076
STARLINK-37791          
1 69336U 26122H   26179.97090331  .00040288  00000+0  73795-3 0  9992
2 69336  97.2842 209.7087 0001835  86.5751 273.5710 15.49215075  3998
STARLINK-37765          
1 69337U 26122J   26180.50003471  .00090460  00000+0  27746-2 0  9994
2 69337  97.2837 210.2843 0000844  72.8134  94.5944 15.33403302  5371
STARLINK-37788          
1 69338U 26122K   26180.52291536  .00032763  00000+0  60110-3 0  9993
2 69338  97.2856 210.1813 0000237 175.4038 184.7215 15.49211774  4074
STARLINK-37743          
1 69339U 26122L   26179.58840077  .00038963  00000+0  71474-3 0  9991
2 69339  97.2829 209.3096 0000427  63.2983 296.8312 15.49180470  3937
STARLINK-37780          
1 69340U 26122M   26180.40849764  .00308355  00000+0  54791-2 0  9995
2 69340  97.2844 210.1855 0001615 136.6845 223.4533 15.49047799  4063
STARLINK-37781          
1 69341U 26122N   26180.52408147  .00040629  00000+0  74429-3 0  9993
2 69341  97.2855 210.1793 0000111 103.2097 256.9167 15.49211042  4075
STARLINK-37782          
1 69342U 26122P   26180.50003471 -.02947999  00000+0 -86457-1 0  9995
2 69342  97.2838 210.3131 0001821  87.0126 146.0178 15.39004710  5327
STARLINK-37776          
1 69343U 26122Q   26180.50003471 -.02976084  00000+0 -82570-1 0  9995
2 69343  97.2844 210.3162 0001688 103.4389 119.6409 15.40720057  5328
STARLINK-37786          
1 69344U 26122R   26180.55101836  .00034413  00000+0  63085-3 0  9994
2 69344  97.2842 210.2980 0000735 101.4403 258.6931 15.49225149  4088
STARLINK-37785          
1 69345U 26122S   26179.61357241 -.00392328  00000+0 -77711-2 0  9997
2 69345  97.2842 209.4304 0002148 163.9671 196.1649 15.48462265  3946
STARLINK-37773          
1 69346U 26122T   26180.53802182  .00036030  00000+0  66051-3 0  9999
2 69346  97.2855 210.3142 0001141  91.8611 268.2770 15.49214978  4086
STARLINK-37744          
1 69347U 26122U   26180.52001362 -.00026314  00000+0 -48414-3 0  9999
2 69347  97.2830 210.1868 0000659 136.2548 223.8756 15.49168481  4076
STARLINK-37775          
1 69348U 26122V   26180.50003471  .00111853  00000+0  20330-2 0  9998
2 69348  97.2839 210.2770 0001473  99.8068  50.5151 15.49134729  5326
STARLINK-37777          
1 69349U 26122W   26180.53669473  .00034692  00000+0  63635-3 0  9993
2 69349  97.2846 210.3166 0001122  78.1544 281.9833 15.49206258  4081
STARLINK-37779          
1 69350U 26122X   26180.52158480  .00037874  00000+0  69423-3 0  9991
2 69350  97.2848 210.3375 0000699  90.9441 269.1890 15.49208346  4084
STARLINK-37549          
1 69351U 26122Y   26179.59292267  .00058221  00000+0  10640-2 0  9994
2 69351  97.2845 209.3054 0001781  88.9936 271.1519 15.49196062  3938
STARLINK-37778          
1 69352U 26122Z   26180.23089101  .00052189  00000+0  95488-3 0  9990
2 69352  97.2870 209.9706 0000892  37.6423 322.4891 15.49190238  4035
STARLINK-37651          
1 69353U 26123A   26180.31024720  .00356930  00000+0  17248-2 0  9995
2 69353  53.1553 181.0507 0001135 194.6672 165.4318 15.81040845  3958
STARLINK-37652          
1 69354U 26123B   26180.24817072  .00272197  00000+0  13399-2 0  9993
2 69354  53.1562 181.3746 0001136 118.7024 241.4112 15.80868173  3943
